[{"OBJECT_NAME":"FLOCK 4G-29","OBJECT_ID":"2025-009AK","EPOCH":"2026-03-09T19:33:04.927968","MEAN_MOTION":15.27382318,"ECCENTRICITY":0.00013664,"INCLINATION":97.4058,"RA_OF_ASC_NODE":151.3683,"ARG_OF_PERICENTER":288.0502,"MEAN_ANOMALY":72.0588,"EPHEMERIS_TYPE":0,"CLASSIFICATION_TYPE":"U","NORAD_CAT_ID":62642,"ELEMENT_SET_NO":999,"REV_AT_EPOCH":6372,"BSTAR":0.0004183135,"MEAN_MOTION_DOT":0.00011147,"MEAN_MOTION_DDOT":0},{"OBJECT_NAME":"STARLINK-35889","OBJECT_ID":"2025-303AC","EPOCH":"2026-03-09T23:14:27.235392","MEAN_MOTION":15.2758588,"ECCENTRICITY":7.669e-5,"INCLINATION":43,"RA_OF_ASC_NODE":309.4949,"ARG_OF_PERICENTER":265.206,"MEAN_ANOMALY":94.8704,"EPHEMERIS_TYPE":0,"CLASSIFICATION_TYPE":"U","NORAD_CAT_ID":67189,"ELEMENT_SET_NO":999,"REV_AT_EPOCH":1277,"BSTAR":0.0013174817,"MEAN_MOTION_DOT":0.00036176,"MEAN_MOTION_DDOT":0}]
